start=new Date('2023-06-12T00:00:00.000Z').valueOf();
sats=[{"RCS_SIZE":"LARGE","TLE_LINE2":"2 53830  53.2165 122.4637 0001196  80.9528 279.1600 15.08837424 41559","OBJECT_NAME":"STARLINK-4761","GP_ID":"233727224","EPHEMERIS_TYPE":"0","EPOCH":"2023-06-11T14:36:26.808768","REF_FRAME":"TEME","OBJECT_TYPE":"PAYLOAD","FILE":"3930737","MEAN_ELEMENT_THEORY":"SGP4","ARG_OF_PERICENTER":"80.9528","BSTAR":"0.00002427400000","PERIOD":"95.438","MEAN_MOTION":"15.08837424","DECAY_DATE":null,"SEMIMAJOR_AXIS":"6917.888","CLASSIFICATION_TYPE":"U","INCLINATION":"53.2165","ELEMENT_SET_NO":"999","TLE_LINE1":"1 53830U 22114N   23162.60864362  .00000098  00000-0  24274-4 0  9998","COUNTRY_CODE":"US","APOAPSIS":"540.581","SITE":"AFETR","REV_AT_EPOCH":"4155","TIME_SYSTEM":"UTC","PERIAPSIS":"538.926","RA_OF_ASC_NODE":"122.4637","MEAN_ANOMALY":"279.1600","ECCENTRICITY":"0.00011960","MEAN_MOTION_DOT":"0.00000098","MEAN_MOTION_DDOT":"0.0000000000000","OBJECT_ID":"2022-114N","CENTER_NAME":"EARTH","NORAD_CAT_ID":"53830","LAUNCH_DATE":"2022-09-19"},{"GP_ID":"233727972","TLE_LINE2":"2 53831  53.2167 122.5558 0001227  87.4425 272.6708 15.08839733 41550","OBJECT_NAME":"STARLINK-4649","RCS_SIZE":"LARGE","OBJECT_TYPE":"PAYLOAD","FILE":"3930737","MEAN_ELEMENT_THEORY":"SGP4","REF_FRAME":"TEME","EPOCH":"2023-06-11T14:57:39.994848","EPHEMERIS_TYPE":"0","ARG_OF_PERICENTER":"87.4425","BSTAR":"0.00004721300000","MEAN_MOTION":"15.08839733","PERIOD":"95.438","APOAPSIS":"540.595","TLE_LINE1":"1 53831U 22114P   23162.62337957  .00000464  00000-0  47213-4 0  9991","ELEMENT_SET_NO":"999","COUNTRY_CODE":"US","SEMIMAJOR_AXIS":"6917.881","CLASSIFICATION_TYPE":"U","INCLINATION":"53.2167","DECAY_DATE":null,"TIME_SYSTEM":"UTC","SITE":"AFETR","REV_AT_EPOCH":"4155","MEAN_MOTION_DOT":"0.00000464","ECCENTRICITY":"0.00012270","RA_OF_ASC_NODE":"122.5558","MEAN_ANOMALY":"272.6708","PERIAPSIS":"538.897","LAUNCH_DATE":"2022-09-19","NORAD_CAT_ID":"53831","OBJECT_ID":"2022-114P","CENTER_NAME":"EARTH","MEAN_MOTION_DDOT":"0.0000000000000"},{"ARG_OF_PERICENTER":"88.9124","BSTAR":"0.00006786500000","PERIOD":"95.438","MEAN_MOTION":"15.08835256","RCS_SIZE":"LARGE","TLE_LINE2":"2 53832  53.2166 120.9305 0001078  88.9124 271.1991 15.08835256 41608","OBJECT_NAME":"STARLINK-4747","GP_ID":"233727721","EPHEMERIS_TYPE":"0","EPOCH":"2023-06-11T22:22:45.767424","REF_FRAME":"TEME","OBJECT_TYPE":"PAYLOAD","FILE":"3930737","MEAN_ELEMENT_THEORY":"SGP4","PERIAPSIS":"539.014","RA_OF_ASC_NODE":"120.9305","MEAN_ANOMALY":"271.1991","ECCENTRICITY":"0.00010780","MEAN_MOTION_DOT":"0.00000792","MEAN_MOTION_DDOT":"0.0000000000000","OBJECT_ID":"2022-114Q","CENTER_NAME":"EARTH","NORAD_CAT_ID":"53832","LAUNCH_DATE":"2022-09-19","DECAY_DATE":null,"SEMIMAJOR_AXIS":"6917.895","CLASSIFICATION_TYPE":"U","INCLINATION":"53.2166","ELEMENT_SET_NO":"999","TLE_LINE1":"1 53832U 22114Q   23162.93247416  .00000792  00000-0  67865-4 0  9995","COUNTRY_CODE":"US","APOAPSIS":"540.506","SITE":"AFETR","REV_AT_EPOCH":"4160","TIME_SYSTEM":"UTC"},{"OBJECT_NAME":"STARLINK-4771","TLE_LINE2":"2 53833  53.2160 121.2969 0001270  86.8364 273.2773 15.08836211 41591","GP_ID":"233726974","RCS_SIZE":"LARGE","REF_FRAME":"TEME","MEAN_ELEMENT_THEORY":"SGP4","FILE":"3930737","OBJECT_TYPE":"PAYLOAD","EPHEMERIS_TYPE":"0","EPOCH":"2023-06-11T21:03:17.910432","BSTAR":"0.00006496300000","ARG_OF_PERICENTER":"86.8364","MEAN_MOTION":"15.08836211","PERIOD":"95.438","COUNTRY_CODE":"US","ELEMENT_SET_NO":"999","TLE_LINE1":"1 53833U 22114R   23162.87729063  .00000746  00000-0  64963-4 0  9997","APOAPSIS":"540.636","DECAY_DATE":null,"INCLINATION":"53.2160","SEMIMAJOR_AXIS":"6917.892","CLASSIFICATION_TYPE":"U","TIME_SYSTEM":"UTC","REV_AT_EPOCH":"4159","SITE":"AFETR","ECCENTRICITY":"0.00012700","MEAN_MOTION_DOT":"0.00000746","PERIAPSIS":"538.878","MEAN_ANOMALY":"273.2773","RA_OF_ASC_NODE":"121.2969","NORAD_CAT_ID":"53833","LAUNCH_DATE":"2022-09-19","MEAN_MOTION_DDOT":"0.0000000000000","CENTER_NAME":"EARTH","OBJECT_ID":"2022-114R"},{"ARG_OF_PERICENTER":"90.5947","BSTAR":"0.00008723100000","PERIOD":"95.438","MEAN_MOTION":"15.08837860","RCS_SIZE":"LARGE","GP_ID":"233726724","TLE_LINE2":"2 53834  53.2162 120.8849 0000959  90.5947 269.5155 15.08837860 41603","OBJECT_NAME":"STARLINK-4737","EPOCH":"2023-06-11T22:12:08.895744","EPHEMERIS_TYPE":"0","OBJECT_TYPE":"PAYLOAD","MEAN_ELEMENT_THEORY":"SGP4","FILE":"3930737","REF_FRAME":"TEME","RA_OF_ASC_NODE":"120.8849","MEAN_ANOMALY":"269.5155","PERIAPSIS":"539.089","MEAN_MOTION_DOT":"0.00001101","ECCENTRICITY":"0.00009590","OBJECT_ID":"2022-114S","CENTER_NAME":"EARTH","MEAN_MOTION_DDOT":"0.0000000000000","LAUNCH_DATE":"2022-09-19","NORAD_CAT_ID":"53834","SEMIMAJOR_AXIS":"6917.887","CLASSIFICATION_TYPE":"U","INCLINATION":"53.2162","DECAY_DATE":null,"APOAPSIS":"540.415","TLE_LINE1":"1 53834U 22114S   23162.92510296  .00001101  00000-0  87231-4 0  9999","ELEMENT_SET_NO":"999","COUNTRY_CODE":"US","SITE":"AFETR","REV_AT_EPOCH":"4160","TIME_SYSTEM":"UTC"},{"MEAN_MOTION":"15.08838564","PERIOD":"95.438","ARG_OF_PERICENTER":"87.0985","BSTAR":"0.00005665500000","REF_FRAME":"TEME","OBJECT_TYPE":"PAYLOAD","MEAN_ELEMENT_THEORY":"SGP4","FILE":"3930737","EPHEMERIS_TYPE":"0","EPOCH":"2023-06-11T14:31:08.322816","OBJECT_NAME":"STARLINK-4783","TLE_LINE2":"2 53835  53.2169 122.4427 0001304  87.0985 273.0156 15.08838564 41556","GP_ID":"233727472","RCS_SIZE":"LARGE","NORAD_CAT_ID":"53835","LAUNCH_DATE":"2022-09-19","MEAN_MOTION_DDOT":"0.0000000000000","OBJECT_ID":"2022-114T","CENTER_NAME":"EARTH","ECCENTRICITY":"0.00013040","MEAN_MOTION_DOT":"0.00000614","PERIAPSIS":"538.848","RA_OF_ASC_NODE":"122.4427","MEAN_ANOMALY":"273.0156","TIME_SYSTEM":"UTC","SITE":"AFETR","REV_AT_EPOCH":"4155","ELEMENT_SET_NO":"999","TLE_LINE1":"1 53835U 22114T   23162.60495744  .00000614  00000-0  56655-4 0  9999","COUNTRY_CODE":"US","APOAPSIS":"540.652","DECAY_DATE":null,"SEMIMAJOR_AXIS":"6917.885","CLASSIFICATION_TYPE":"U","INCLINATION":"53.2169"},{"SEMIMAJOR_AXIS":"6917.893","CLASSIFICATION_TYPE":"U","INCLINATION":"53.2167","DECAY_DATE":null,"APOAPSIS":"540.602","TLE_LINE1":"1 53836U 22114U   23162.84144969  .00001053  00000-0  84220-4 0  9993","ELEMENT_SET_NO":"999","COUNTRY_CODE":"US","SITE":"AFETR","REV_AT_EPOCH":"4172","TIME_SYSTEM":"UTC","RA_OF_ASC_NODE":"111.7939","MEAN_ANOMALY":"267.0357","PERIAPSIS":"538.913","MEAN_MOTION_DOT":"0.00001053","ECCENTRICITY":"0.00012210","OBJECT_ID":"2022-114U","CENTER_NAME":"EARTH","MEAN_MOTION_DDOT":"0.0000000000000","LAUNCH_DATE":"2022-09-19","NORAD_CAT_ID":"53836","RCS_SIZE":"LARGE","GP_ID":"233728222","OBJECT_NAME":"STARLINK-4778","TLE_LINE2":"2 53836  53.2167 111.7939 0001221  93.0775 267.0357 15.08835993 41724","EPOCH":"2023-06-11T20:11:41.253216","EPHEMERIS_TYPE":"0","OBJECT_TYPE":"PAYLOAD","FILE":"3930737","MEAN_ELEMENT_THEORY":"SGP4","REF_FRAME":"TEME","ARG_OF_PERICENTER":"93.0775","BSTAR":"0.00008422000000","PERIOD":"95.438","MEAN_MOTION":"15.08835993"},{"MEAN_MOTION":"15.08837059","PERIOD":"95.438","ARG_OF_PERICENTER":"91.8642","BSTAR":"0.00008103100000","REF_FRAME":"TEME","OBJECT_TYPE":"PAYLOAD","FILE":"3930737","MEAN_ELEMENT_THEORY":"SGP4","EPHEMERIS_TYPE":"0","EPOCH":"2023-06-11T20:42:04.100544","OBJECT_NAME":"STARLINK-4776","TLE_LINE2":"2 53837  53.2163 121.2045 0001024  91.8642 268.2467 15.08837059 41590","GP_ID":"233726474","RCS_SIZE":"LARGE","NORAD_CAT_ID":"53837","LAUNCH_DATE":"2022-09-19","MEAN_MOTION_DDOT":"0.0000000000000","OBJECT_ID":"2022-114V","CENTER_NAME":"EARTH","ECCENTRICITY":"0.00010240","MEAN_MOTION_DOT":"0.00001002","PERIAPSIS":"539.046","RA_OF_ASC_NODE":"121.2045","MEAN_ANOMALY":"268.2467","TIME_SYSTEM":"UTC","SITE":"AFETR","REV_AT_EPOCH":"4159","ELEMENT_SET_NO":"999","TLE_LINE1":"1 53837U 22114V   23162.86254746  .00001002  00000-0  81031-4 0  9992","COUNTRY_CODE":"US","APOAPSIS":"540.463","DECAY_DATE":null,"SEMIMAJOR_AXIS":"6917.889","CLASSIFICATION_TYPE":"U","INCLINATION":"53.2163"},{"MEAN_MOTION":"15.08836177","PERIOD":"95.438","BSTAR":"0.00011631000000","ARG_OF_PERICENTER":"94.6356","FILE":"3930737","MEAN_ELEMENT_THEORY":"SGP4","OBJECT_TYPE":"PAYLOAD","REF_FRAME":"TEME","EPOCH":"2023-06-11T20:06:23.004000","EPHEMERIS_TYPE":"0","GP_ID":"233727225","TLE_LINE2":"2 53838  53.2163 111.7757 0001229  94.6356 265.4777 15.08836177 41723","OBJECT_NAME":"STARLINK-4773","RCS_SIZE":"LARGE","LAUNCH_DATE":"2022-09-19","NORAD_CAT_ID":"53838","CENTER_NAME":"EARTH","OBJECT_ID":"2022-114W","MEAN_MOTION_DDOT":"0.0000000000000","MEAN_MOTION_DOT":"0.00001564","ECCENTRICITY":"0.00012290","MEAN_ANOMALY":"265.4777","RA_OF_ASC_NODE":"111.7757","PERIAPSIS":"538.907","TIME_SYSTEM":"UTC","REV_AT_EPOCH":"4172","SITE":"AFETR","APOAPSIS":"540.607","COUNTRY_CODE":"US","ELEMENT_SET_NO":"999","TLE_LINE1":"1 53838U 22114W   23162.83776625  .00001564  00000-0  11631-3 0  9996","INCLINATION":"53.2163","CLASSIFICATION_TYPE":"U","SEMIMAJOR_AXIS":"6917.892","DECAY_DATE":null},{"RCS_SIZE":"LARGE","GP_ID":"233727973","OBJECT_NAME":"STARLINK-4784","TLE_LINE2":"2 53839  53.2170 111.8217 0001090  89.4965 270.6152 15.08836880 41724","EPOCH":"2023-06-11T20:16:59.394432","EPHEMERIS_TYPE":"0","OBJECT_TYPE":"PAYLOAD","MEAN_ELEMENT_THEORY":"SGP4","FILE":"3930737","REF_FRAME":"TEME","ARG_OF_PERICENTER":"89.4965","BSTAR":"0.00006168700000","PERIOD":"95.438","MEAN_MOTION":"15.08836880","CLASSIFICATION_TYPE":"U","SEMIMAJOR_AXIS":"6917.890","INCLINATION":"53.2170","DECAY_DATE":null,"APOAPSIS":"540.509","TLE_LINE1":"1 53839U 22114X   23162.84513188  .00000694  00000-0  61687-4 0  9991","ELEMENT_SET_NO":"999","COUNTRY_CODE":"US","SITE":"AFETR","REV_AT_EPOCH":"4172","TIME_SYSTEM":"UTC","RA_OF_ASC_NODE":"111.8217","MEAN_ANOMALY":"270.6152","PERIAPSIS":"539.001","MEAN_MOTION_DOT":"0.00000694","ECCENTRICITY":"0.00010900","OBJECT_ID":"2022-114X","CENTER_NAME":"EARTH","MEAN_MOTION_DDOT":"0.0000000000000","LAUNCH_DATE":"2022-09-19","NORAD_CAT_ID":"53839"}];
